[{"OBJECT_NAME":"STARLINK-32653","OBJECT_ID":"2024-229H","EPOCH":"2026-03-09T20:12:47.437344","MEAN_MOTION":15.27565953,"ECCENTRICITY":0.00010941,"INCLINATION":42.9969,"RA_OF_ASC_NODE":262.9749,"ARG_OF_PERICENTER":273.8257,"MEAN_ANOMALY":86.2469,"EPHEMERIS_TYPE":0,"CLASSIFICATION_TYPE":"U","NORAD_CAT_ID":62199,"ELEMENT_SET_NO":999,"REV_AT_EPOCH":7066,"BSTAR":0.00085986176,"MEAN_MOTION_DOT":0.00023465,"MEAN_MOTION_DDOT":0},{"OBJECT_NAME":"CZ-4C R\/B","OBJECT_ID":"2023-123B","EPOCH":"2026-03-09T21:44:40.426944","MEAN_MOTION":15.36684191,"ECCENTRICITY":0.00627803,"INCLINATION":97.9677,"RA_OF_ASC_NODE":50.672,"ARG_OF_PERICENTER":67.0775,"MEAN_ANOMALY":293.7077,"EPHEMERIS_TYPE":0,"CLASSIFICATION_TYPE":"U","NORAD_CAT_ID":57655,"ELEMENT_SET_NO":999,"REV_AT_EPOCH":14181,"BSTAR":0.00052203987,"MEAN_MOTION_DOT":0.00019917,"MEAN_MOTION_DDOT":0}]
